start=new Date('2023-03-09T00:00:00.000Z').valueOf();
sats=[{"EPHEMERIS_TYPE":"0","REF_FRAME":"TEME","MEAN_MOTION":"15.49285698","OBJECT_ID":"2023-015AP","COUNTRY_CODE":"US","TIME_SYSTEM":"UTC","RCS_SIZE":"LARGE","ELEMENT_SET_NO":"999","MEAN_ANOMALY":"197.1477","OBJECT_NAME":"STARLINK-5704","MEAN_MOTION_DOT":"-0.00933826","CLASSIFICATION_TYPE":"U","REV_AT_EPOCH":"130","INCLINATION":"43.0005","TLE_LINE1":"1 55486U 23015AP  23067.91667824 -.00933826  00000-0 -18148-1 0  9996","ARG_OF_PERICENTER":"282.7827","ECCENTRICITY":"0.00014220","NORAD_CAT_ID":"55486","MEAN_ELEMENT_THEORY":"SGP4","OBJECT_TYPE":"PAYLOAD","EPOCH":"2023-03-08T22:00:00.999936","SITE":"AFETR","LAUNCH_DATE":"2023-02-02","FILE":"3855077","DECAY_DATE":null,"MEAN_MOTION_DDOT":"0.0000000000000","PERIOD":"92.946","SEMIMAJOR_AXIS":"6796.951","BSTAR":"-0.01814800000000","PERIAPSIS":"417.850","GP_ID":"227724091","RA_OF_ASC_NODE":"181.4165","APOAPSIS":"419.783","CENTER_NAME":"EARTH","TLE_LINE2":"2 55486  43.0005 181.4165 0001422 282.7827 197.1477 15.49285698  1300"},{"OBJECT_TYPE":"PAYLOAD","MEAN_ELEMENT_THEORY":"SGP4","NORAD_CAT_ID":"55487","EPOCH":"2023-03-08T22:00:00.999936","TLE_LINE1":"1 55487U 23015AQ  23067.91667824 -.01253927  00000-0 -30225-1 0  9995","INCLINATION":"43.0007","CLASSIFICATION_TYPE":"U","REV_AT_EPOCH":"130","ARG_OF_PERICENTER":"272.9116","ECCENTRICITY":"0.00015670","ELEMENT_SET_NO":"999","RCS_SIZE":"LARGE","TIME_SYSTEM":"UTC","OBJECT_NAME":"STARLINK-5701","MEAN_MOTION_DOT":"-0.01253927","MEAN_ANOMALY":"107.9618","MEAN_MOTION":"15.43454704","REF_FRAME":"TEME","EPHEMERIS_TYPE":"0","COUNTRY_CODE":"US","OBJECT_ID":"2023-015AQ","CENTER_NAME":"EARTH","TLE_LINE2":"2 55487  43.0007 181.6594 0001567 272.9116 107.9618 15.43454704  1309","APOAPSIS":"436.992","GP_ID":"227724842","RA_OF_ASC_NODE":"181.6594","PERIAPSIS":"434.857","BSTAR":"-0.03022500000000","SEMIMAJOR_AXIS":"6814.059","DECAY_DATE":null,"FILE":"3855077","LAUNCH_DATE":"2023-02-02","MEAN_MOTION_DDOT":"0.0000000000000","PERIOD":"93.297","SITE":"AFETR"},{"ELEMENT_SET_NO":"999","RCS_SIZE":"LARGE","TIME_SYSTEM":"UTC","OBJECT_NAME":"STARLINK-5706","MEAN_MOTION_DOT":"-0.01254631","MEAN_ANOMALY":"146.0674","MEAN_MOTION":"15.46347106","REF_FRAME":"TEME","EPHEMERIS_TYPE":"0","COUNTRY_CODE":"US","OBJECT_ID":"2023-015AR","OBJECT_TYPE":"PAYLOAD","MEAN_ELEMENT_THEORY":"SGP4","NORAD_CAT_ID":"55488","EPOCH":"2023-03-08T22:00:00.999936","TLE_LINE1":"1 55488U 23015AR  23067.91667824 -.01254631  00000-0 -27373-1 0  9999","INCLINATION":"43.0006","CLASSIFICATION_TYPE":"U","REV_AT_EPOCH":"130","ECCENTRICITY":"0.00018650","ARG_OF_PERICENTER":"280.6136","DECAY_DATE":null,"FILE":"3855077","LAUNCH_DATE":"2023-02-02","PERIOD":"93.123","MEAN_MOTION_DDOT":"0.0000000000000","SITE":"AFETR","CENTER_NAME":"EARTH","TLE_LINE2":"2 55488  43.0006 181.5469 0001865 280.6136 146.0674 15.46347106  1304","APOAPSIS":"428.694","GP_ID":"227725592","RA_OF_ASC_NODE":"181.5469","PERIAPSIS":"426.156","BSTAR":"-0.02737300000000","SEMIMAJOR_AXIS":"6805.560"},{"OBJECT_TYPE":"PAYLOAD","MEAN_ELEMENT_THEORY":"SGP4","NORAD_CAT_ID":"55489","EPOCH":"2023-03-08T22:00:00.999936","TLE_LINE1":"1 55489U 23015AS  23067.91667824 -.01253036  00000-0 -29676-1 0  9996","INCLINATION":"43.0006","CLASSIFICATION_TYPE":"U","REV_AT_EPOCH":"130","ECCENTRICITY":"0.00015700","ARG_OF_PERICENTER":"278.4132","ELEMENT_SET_NO":"999","RCS_SIZE":"LARGE","TIME_SYSTEM":"UTC","OBJECT_NAME":"STARLINK-5371","MEAN_MOTION_DOT":"-0.01253036","MEAN_ANOMALY":"118.6671","MEAN_MOTION":"15.43968302","REF_FRAME":"TEME","EPHEMERIS_TYPE":"0","COUNTRY_CODE":"US","OBJECT_ID":"2023-015AS","CENTER_NAME":"EARTH","TLE_LINE2":"2 55489  43.0006 181.6195 0001570 278.4132 118.6671 15.43968302  1302","APOAPSIS":"435.483","GP_ID":"227725839","RA_OF_ASC_NODE":"181.6195","BSTAR":"-0.02967600000000","PERIAPSIS":"433.344","SEMIMAJOR_AXIS":"6812.548","DECAY_DATE":null,"FILE":"3855077","LAUNCH_DATE":"2023-02-02","PERIOD":"93.266","MEAN_MOTION_DDOT":"0.0000000000000","SITE":"AFETR"},{"SITE":"AFETR","FILE":"3855068","LAUNCH_DATE":"2023-02-02","DECAY_DATE":null,"PERIOD":"93.142","MEAN_MOTION_DDOT":"0.0000000000000","PERIAPSIS":"427.379","BSTAR":"-0.02600800000000","SEMIMAJOR_AXIS":"6806.481","APOAPSIS":"429.312","GP_ID":"227699015","RA_OF_ASC_NODE":"180.5627","CENTER_NAME":"EARTH","TLE_LINE2":"2 55490  43.0011 180.5627 0001420 263.3747  18.3079 15.46033295  5429","REF_FRAME":"TEME","EPHEMERIS_TYPE":"0","MEAN_MOTION":"15.46033295","OBJECT_ID":"2023-015AT","COUNTRY_CODE":"US","RCS_SIZE":"LARGE","TIME_SYSTEM":"UTC","ELEMENT_SET_NO":"999","MEAN_ANOMALY":"18.3079","OBJECT_NAME":"STARLINK-5373","MEAN_MOTION_DOT":"-0.01185586","REV_AT_EPOCH":"542","CLASSIFICATION_TYPE":"U","TLE_LINE1":"1 55490U 23015AT  23068.08334491 -.01185586  00000-0 -26008-1 0  9998","INCLINATION":"43.0011","ECCENTRICITY":"0.00014200","ARG_OF_PERICENTER":"263.3747","MEAN_ELEMENT_THEORY":"SGP4","NORAD_CAT_ID":"55490","OBJECT_TYPE":"PAYLOAD","EPOCH":"2023-03-09T02:00:01.000224"},{"OBJECT_TYPE":"PAYLOAD","NORAD_CAT_ID":"55491","MEAN_ELEMENT_THEORY":"SGP4","EPOCH":"2023-03-08T16:09:57.826080","INCLINATION":"43.0003","TLE_LINE1":"1 55491U 23015AU  23067.67358595  .00001979  00000-0  18535-4 0  9993","REV_AT_EPOCH":"556","CLASSIFICATION_TYPE":"U","ECCENTRICITY":"0.00013740","ARG_OF_PERICENTER":"259.0335","ELEMENT_SET_NO":"999","TIME_SYSTEM":"UTC","RCS_SIZE":"LARGE","MEAN_MOTION_DOT":"0.00001979","OBJECT_NAME":"STARLINK-5364","MEAN_ANOMALY":"101.0378","MEAN_MOTION":"15.71354676","EPHEMERIS_TYPE":"0","REF_FRAME":"TEME","COUNTRY_CODE":"US","OBJECT_ID":"2023-015AU","CENTER_NAME":"EARTH","TLE_LINE2":"2 55491  43.0003 181.5478 0001374 259.0335 101.0378 15.71354676  5563","RA_OF_ASC_NODE":"181.5478","GP_ID":"227724342","APOAPSIS":"355.952","SEMIMAJOR_AXIS":"6733.161","BSTAR":"0.00001853500000","PERIAPSIS":"354.101","DECAY_DATE":null,"LAUNCH_DATE":"2023-02-02","FILE":"3855077","MEAN_MOTION_DDOT":"0.0000000000000","PERIOD":"91.641","SITE":"AFETR"},{"FILE":"3855077","LAUNCH_DATE":"2023-02-02","DECAY_DATE":null,"MEAN_MOTION_DDOT":"0.0000000000000","PERIOD":"93.164","SITE":"AFETR","CENTER_NAME":"EARTH","TLE_LINE2":"2 55492  43.0008 181.5600 0001515 272.3124 149.0206 15.45655434  1304","PERIAPSIS":"428.424","BSTAR":"-0.02801500000000","SEMIMAJOR_AXIS":"6807.590","APOAPSIS":"430.486","GP_ID":"227725092","RA_OF_ASC_NODE":"181.5600","RCS_SIZE":"LARGE","TIME_SYSTEM":"UTC","ELEMENT_SET_NO":"999","MEAN_ANOMALY":"149.0206","OBJECT_NAME":"STARLINK-5013","MEAN_MOTION_DOT":"-0.01253572","REF_FRAME":"TEME","EPHEMERIS_TYPE":"0","MEAN_MOTION":"15.45655434","OBJECT_ID":"2023-015AV","COUNTRY_CODE":"US","MEAN_ELEMENT_THEORY":"SGP4","NORAD_CAT_ID":"55492","OBJECT_TYPE":"PAYLOAD","EPOCH":"2023-03-08T22:00:00.999936","CLASSIFICATION_TYPE":"U","REV_AT_EPOCH":"130","TLE_LINE1":"1 55492U 23015AV  23067.91667824 -.01253572  00000-0 -28015-1 0  9991","INCLINATION":"43.0008","ECCENTRICITY":"0.00015150","ARG_OF_PERICENTER":"272.3124"},{"DECAY_DATE":null,"LAUNCH_DATE":"2023-02-02","FILE":"3855077","PERIOD":"93.162","MEAN_MOTION_DDOT":"0.0000000000000","SITE":"AFETR","CENTER_NAME":"EARTH","TLE_LINE2":"2 55493  43.0007 181.5466 0001556 277.4722 149.3622 15.45695914  1301","GP_ID":"227725339","RA_OF_ASC_NODE":"181.5466","APOAPSIS":"430.395","SEMIMAJOR_AXIS":"6807.471","PERIAPSIS":"428.277","BSTAR":"-0.02792700000000","ELEMENT_SET_NO":"999","TIME_SYSTEM":"UTC","RCS_SIZE":"LARGE","OBJECT_NAME":"STARLINK-5362","MEAN_MOTION_DOT":"-0.01251602","MEAN_ANOMALY":"149.3622","MEAN_MOTION":"15.45695914","EPHEMERIS_TYPE":"0","REF_FRAME":"TEME","COUNTRY_CODE":"US","OBJECT_ID":"2023-015AW","OBJECT_TYPE":"PAYLOAD","NORAD_CAT_ID":"55493","MEAN_ELEMENT_THEORY":"SGP4","EPOCH":"2023-03-08T22:00:00.999936","INCLINATION":"43.0007","TLE_LINE1":"1 55493U 23015AW  23067.91667824 -.01251602  00000-0 -27927-1 0  9995","CLASSIFICATION_TYPE":"U","REV_AT_EPOCH":"130","ARG_OF_PERICENTER":"277.4722","ECCENTRICITY":"0.00015560"},{"NORAD_CAT_ID":"55494","MEAN_ELEMENT_THEORY":"SGP4","OBJECT_TYPE":"PAYLOAD","EPOCH":"2023-03-08T22:00:00.999936","REV_AT_EPOCH":"130","CLASSIFICATION_TYPE":"U","INCLINATION":"43.0007","TLE_LINE1":"1 55494U 23015AX  23067.91667824 -.01253812  00000-0 -27191-1 0  9994","ARG_OF_PERICENTER":"281.0941","ECCENTRICITY":"0.00015110","TIME_SYSTEM":"UTC","RCS_SIZE":"LARGE","ELEMENT_SET_NO":"999","MEAN_ANOMALY":"154.7330","MEAN_MOTION_DOT":"-0.01253812","OBJECT_NAME":"STARLINK-5344","EPHEMERIS_TYPE":"0","REF_FRAME":"TEME","MEAN_MOTION":"15.46520909","OBJECT_ID":"2023-015AX","COUNTRY_CODE":"US","CENTER_NAME":"EARTH","TLE_LINE2":"2 55494  43.0007 181.5245 0001511 281.0941 154.7330 15.46520909  1300","SEMIMAJOR_AXIS":"6805.050","PERIAPSIS":"425.887","BSTAR":"-0.02719100000000","GP_ID":"227724092","RA_OF_ASC_NODE":"181.5245","APOAPSIS":"427.943","LAUNCH_DATE":"2023-02-02","FILE":"3855077","DECAY_DATE":null,"PERIOD":"93.112","MEAN_MOTION_DDOT":"0.0000000000000","SITE":"AFETR"},{"ARG_OF_PERICENTER":"266.3274","ECCENTRICITY":"0.00025520","CLASSIFICATION_TYPE":"U","REV_AT_EPOCH":"553","INCLINATION":"43.0017","TLE_LINE1":"1 55495U 23015AY  23067.48516432  .00023252  00000-0  18017-3 0  9994","EPOCH":"2023-03-08T11:38:38.197248","NORAD_CAT_ID":"55495","MEAN_ELEMENT_THEORY":"SGP4","OBJECT_TYPE":"PAYLOAD","OBJECT_ID":"2023-015AY","COUNTRY_CODE":"US","EPHEMERIS_TYPE":"0","REF_FRAME":"TEME","MEAN_MOTION":"15.71366206","MEAN_ANOMALY":"93.7302","MEAN_MOTION_DOT":"0.00023252","OBJECT_NAME":"STARLINK-5100","TIME_SYSTEM":"UTC","RCS_SIZE":"LARGE","ELEMENT_SET_NO":"999","SEMIMAJOR_AXIS":"6733.128","BSTAR":"0.00018017000000","PERIAPSIS":"353.275","GP_ID":"227724843","RA_OF_ASC_NODE":"182.7264","APOAPSIS":"356.712","TLE_LINE2":"2 55495  43.0017 182.7264 0002552 266.3274  93.7302 15.71366206  5533","CENTER_NAME":"EARTH","SITE":"AFETR","MEAN_MOTION_DDOT":"0.0000000000000","PERIOD":"91.640","LAUNCH_DATE":"2023-02-02","FILE":"3855077","DECAY_DATE":null}];
